NORAD_CAT_ID,OBJECT_NAME,OBJECT_TYPE,EPOCH,MEAN_MOTION,ECCENTRICITY,INCLINATION,RA_OF_ASC_NODE,ARG_OF_PERICENTER,MEAN_ANOMALY,BSTAR,MEAN_MOTION_DOT,MEAN_MOTION_DDOT,TLE_LINE0,TLE_LINE1,TLE_LINE2,SEMIMAJOR_AXIS,PERIOD,APOGEE,PERIGEE,DECAYED
54772.0,STARLINK-5452,PAYLOAD,2023-06-19 09:36:54,15.08836621,7.27e-05,53.2149,172.8008,50.3161,309.7895,2.6825e-05,1.39e-06,0.0,0 STARLINK-5452,1 54772U 22175Q   23170.40063131  .00000139  00000-0  26825-4 0  9993,2 54772  53.2149 172.8008 0000727  50.3161 309.7895 15.08836621 27863,6917.891,95.438,540.259,539.253,0.0
54772.0,STARLINK-5452,PAYLOAD,2023-06-19 17:33:50,15.08837998,7.45e-05,53.2152,171.3142,49.7027,310.403,5.0898e-05,5.22e-06,0.0,0 STARLINK-5452,1 54772U 22175Q   23170.73183032  .00000522  00000-0  50898-4 0  9995,2 54772  53.2152 171.3142 0000745  49.7027 310.4030 15.08837998 30078,6917.887,95.438,540.267,539.236,0.0
54772.0,STARLINK-5452,PAYLOAD,2023-06-20 09:27:41,15.088403,7.76e-05,53.215,168.3403,48.3423,311.7635,0.00011426,1.531e-05,0.0,0 STARLINK-5452,1 54772U 22175Q   23171.39422767  .00001531  00000-0  11426-3 0  9993,2 54772  53.2150 168.3403 0000776  48.3423 311.7635 15.08840300 30178,6917.879,95.438,540.281,539.208,0.0
54772.0,STARLINK-5452,PAYLOAD,2023-06-21 02:56:55,15.08843044,7.88e-05,53.2152,165.0688,49.1389,310.9672,7.7271e-05,9.42e-06,0.0,0 STARLINK-5452,1 54772U 22175Q   23172.12286644  .00000942  00000-0  77271-4 0  9993,2 54772  53.2152 165.0688 0000788  49.1389 310.9672 15.08843044 28124,6917.871,95.437,540.281,539.191,0.0
54772.0,STARLINK-5452,PAYLOAD,2023-06-21 09:18:27,15.08845831,8.06e-05,53.2152,163.8793,49.0125,311.0937,8.2238e-05,1.022e-05,0.0,0 STARLINK-5452,1 54772U 22175Q   23172.38782403  .00001022  00000-0  82238-4 0  9994,2 54772  53.2152 163.8793 0000806  49.0125 311.0937 15.08845831 30322,6917.863,95.437,540.285,539.17,0.0
54772.0,STARLINK-5452,PAYLOAD,2023-06-22 02:47:42,15.08839703,7.74e-05,53.2153,160.6068,56.448,303.6586,-1.8906e-05,-5.89e-06,0.0,0 STARLINK-5452,1 54772U 22175Q   23173.11646975 -.00000589  00000-0 -18906-4 0  9999,2 54772  53.2153 160.6068 0000774  56.4480 303.6586 15.08839703 28272,6917.881,95.438,540.282,539.211,0.0
54772.0,STARLINK-5452,PAYLOAD,2023-06-23 05:49:15,15.08843962,9.01e-05,53.2153,155.5524,49.9542,310.1529,2.1444e-05,5.4e-07,0.0,0 STARLINK-5452,1 54772U 22175Q   23174.24254549  .00000054  00000-0  21444-4 0  9992,2 54772  53.2153 155.5524 0000901  49.9542 310.1529 15.08843962 28441,6917.868,95.437,540.357,539.11,0.0
54772.0,STARLINK-5452,PAYLOAD,2023-06-23 15:21:35,15.08837913,9.36e-05,53.2152,153.7685,49.4403,310.667,-2.0157e-05,-6.08e-06,0.0,0 STARLINK-5452,1 54772U 22175Q   23174.63999060 -.00000608  00000-0 -20157-4 0  9996,2 54772  53.2152 153.7685 0000936  49.4403 310.6670 15.08837913 28505,6917.887,95.438,540.399,539.104,0.0
54772.0,STARLINK-5452,PAYLOAD,2023-06-25 02:20:04,15.08840354,9.02e-05,53.2158,147.2284,66.213,293.8957,4.2734e-05,3.92e-06,0.0,0 STARLINK-5452,1 54772U 22175Q   23176.09727145  .00000392  00000-0  42734-4 0  9994,2 54772  53.2158 147.2284 0000902  66.2130 293.8957 15.08840354 28728,6917.879,95.438,540.368,539.12,0.0
54772.0,STARLINK-5452,PAYLOAD,2023-06-25 15:03:09,15.0883193,8.51e-05,53.2158,144.8483,70.5085,289.5999,-1.254e-05,-4.87e-06,0.0,0 STARLINK-5452,1 54772U 22175Q   23176.62719757 -.00000487  00000-0 -12540-4 0  9992,2 54772  53.2158 144.8483 0000851  70.5085 289.5999 15.08831930 28809,6917.905,95.438,540.359,539.181,0.0
54772.0,STARLINK-5452,PAYLOAD,2023-06-26 05:21:37,15.08840151,8.86e-05,53.2157,142.1721,77.2406,282.8685,7.3643e-05,8.85e-06,0.0,0 STARLINK-5452,1 54772U 22175Q   23177.22335190  .00000885  00000-0  73643-4 0  9995,2 54772  53.2157 142.1721 0000886  77.2406 282.8685 15.08840151 28895,6917.88,95.438,540.358,539.132,0.0
54772.0,STARLINK-5452,PAYLOAD,2023-06-26 14:53:57,15.08830005,7.97e-05,53.2158,140.3881,78.5155,281.5926,-2.3219e-05,-6.57e-06,0.0,0 STARLINK-5452,1 54772U 22175Q   23177.62080085 -.00000657  00000-0 -23219-4 0  9992,2 54772  53.2158 140.3881 0000797  78.5155 281.5926 15.08830005 28957,6917.911,95.438,540.327,539.225,0.0
54772.0,STARLINK-5452,PAYLOAD,2023-06-27 03:37:01,15.08838715,9.42e-05,53.2157,138.0086,81.1001,279.0098,1.9532e-06,-2.57e-06,0.0,0 STARLINK-5452,1 54772U 22175Q   23178.15071662 -.00000257  00000-0  19532-5 0  9991,2 54772  53.2157 138.0086 0000942  81.1001 279.0098 15.08838715 29037,6917.884,95.438,540.401,539.098,0.0
54772.0,STARLINK-5452,PAYLOAD,2023-06-29 03:18:35,15.08841006,0.0001057,53.2157,129.0863,88.3646,271.7467,7.6761e-05,9.34e-06,0.0,0 STARLINK-5452,1 54772U 22175Q   23180.13791596  .00000934  00000-0  76761-4 0  9994,2 54772  53.2157 129.0863 0001057  88.3646 271.7467 15.08841006 29331,6917.877,95.437,540.474,539.011,0.0
54772.0,STARLINK-5452,PAYLOAD,2023-06-30 12:41:43,15.08824223,0.000227,53.2166,122.8452,91.2714,268.8538,-0.00010003,-1.879e-05,0.0,0 STARLINK-5452,1 54772U 22175Q   23181.52897543 -.00001879  00000-0 -10003-3 0  9994,2 54772  53.2166 122.8452 0002270  91.2714 268.8538 15.08824223 29544,6917.929,95.439,541.364,538.223,0.0
54772.0,STARLINK-5452,PAYLOAD,2023-07-01 03:00:10,15.08842384,0.0001157,53.2161,120.1673,97.3693,262.7431,1.3812e-05,-6.8e-07,0.0,0 STARLINK-5452,1 54772U 22175Q   23182.12511844 -.00000068  00000-0  13812-4 0  9998,2 54772  53.2161 120.1673 0001157  97.3693 262.7431 15.08842384 29634,6917.873,95.437,540.538,538.938,0.0
54772.0,STARLINK-5452,PAYLOAD,2023-07-01 04:35:33,15.08834803,0.0001088,53.2162,119.8694,93.6976,266.4141,-3.2316e-05,-8.02e-06,0.0,0 STARLINK-5452,1 54772U 22175Q   23182.19136485 -.00000802  00000-0 -32316-4 0  9996,2 54772  53.2162 119.8694 0001088  93.6976 266.4141 15.08834803 29646,6917.896,95.438,540.514,539.009,0.0
54772.0,STARLINK-5452,PAYLOAD,2023-07-02 06:01:43,15.0884234,0.0001089,53.2166,115.1124,99.4773,260.6342,-7.9425e-07,-3e-06,0.0,0 STARLINK-5452,1 54772U 22175Q   23183.25120271 -.00000300  00000-0 -79425-6 0  9997,2 54772  53.2166 115.1124 0001089  99.4773 260.6342 15.08842340 29809,6917.873,95.437,540.492,538.985,0.0
54772.0,STARLINK-5452,PAYLOAD,2023-07-03 12:14:03,15.08843292,0.0001224,53.2163,109.4619,109.0794,251.0331,5.8971e-05,6.51e-06,0.0,0 STARLINK-5452,1 54772U 22175Q   23184.50976385  .00000651  00000-0  58971-4 0  9999,2 54772  53.2163 109.4619 0001224 109.0794 251.0331 15.08843292 29992,6917.87,95.437,540.582,538.889,0.0
54772.0,STARLINK-5452,PAYLOAD,2023-07-05 00:47:56,15.08841039,0.0001157,53.2165,102.6225,94.246,265.8664,4.5457e-05,4.36e-06,0.0,0 STARLINK-5452,1 54772U 22175Q   23186.03328811  .00000436  00000-0  45457-4 0  9990,2 54772  53.2165 102.6225 0001157  94.2460 265.8664 15.08841039 30229,6917.877,95.437,540.543,538.942,0.0
54772.0,STARLINK-5452,PAYLOAD,2023-07-05 21:27:55,15.08874727,0.0001379,53.2167,98.7562,82.9119,277.203,-0.00043674,-7.239e-05,0.0,0 STARLINK-5452,1 54772U 22175Q   23186.89439633 -.00007239  00000-0 -43674-3 0  9997,2 54772  53.2167  98.7562 0001379  82.9119 277.2030 15.08874727 30359,6917.774,95.435,540.593,538.685,0.0
54772.0,STARLINK-5452,PAYLOAD,2023-07-06 03:49:28,15.08843358,0.0001208,53.217,97.5672,93.8803,266.2327,0.00017133,2.44e-05,0.0,0 STARLINK-5452,1 54772U 22175Q   23187.15936274  .00002440  00000-0  17133-3 0  9998,2 54772  53.2170  97.5672 0001208  93.8803 266.2327 15.08843358 30391,6917.87,95.437,540.571,538.899,0.0
54772.0,STARLINK-5452,PAYLOAD,2023-07-07 03:40:16,15.0884333,0.0001257,53.2174,93.1075,82.2094,277.904,8.5771e-05,1.078e-05,0.0,0 STARLINK-5452,1 54772U 22175Q   23188.15296514  .00001078  00000-0  85771-4 0  9995,2 54772  53.2174  93.1075 0001257  82.2094 277.9040 15.08843330 30540,6917.87,95.437,540.605,538.866,0.0
54772.0,STARLINK-5452,PAYLOAD,2023-07-07 17:58:44,15.08837152,0.0001477,53.2185,90.4297,89.256,270.8602,1.3082e-05,-8e-07,0.0,0 STARLINK-5452,1 54772U 22175Q   23188.74913139 -.00000080  00000-0  13082-4 0  9998,2 54772  53.2185  90.4297 0001477  89.2560 270.8602 15.08837152 30638,6917.889,95.438,540.776,538.732,0.0
54772.0,STARLINK-5452,PAYLOAD,2023-07-08 00:20:17,15.08843375,0.0001252,53.2172,89.242,88.6296,271.484,7.2942e-05,8.73e-06,0.0,0 STARLINK-5452,1 54772U 22175Q   23189.01408601  .00000873  00000-0  72942-4 0  9991,2 54772  53.2172  89.2420 0001252  88.6296 271.4840 15.08843375 30677,6917.87,95.437,540.601,538.869,0.0
54772.0,STARLINK-5452,PAYLOAD,2023-07-08 09:52:36,15.08836495,0.0001512,53.2188,87.4567,88.3292,271.7873,-4.0973e-05,-9.4e-06,0.0,0 STARLINK-5452,1 54772U 22175Q   23189.41153317 -.00000940  00000-0 -40973-4 0  9992,2 54772  53.2188  87.4567 0001512  88.3292 271.7873 15.08836495 30739,6917.891,95.438,540.802,538.71,0.0
54772.0,STARLINK-5452,PAYLOAD,2023-07-10 01:37:14,15.08840037,0.0001064,53.2173,80.0244,91.3797,268.7317,8.562e-05,1.075e-05,0.0,0 STARLINK-5452,1 54772U 22175Q   23191.06753308  .00001075  00000-0  85620-4 0  9998,2 54772  53.2173  80.0244 0001064  91.3797 268.7317 15.08840037 30983,6917.88,95.438,540.481,539.009,0.0
54772.0,STARLINK-5452,PAYLOAD,2023-07-11 23:43:25,15.0884467,0.000104,53.2176,71.3986,87.8374,272.2737,6.9798e-05,8.23e-06,0.0,0 STARLINK-5452,1 54772U 22175Q   23192.98849102  .00000823  00000-0  69798-4 0  9996,2 54772  53.2176  71.3986 0001040  87.8374 272.2737 15.08844670 31273,6917.866,95.437,540.451,539.012,0.0
54772.0,STARLINK-5452,PAYLOAD,2023-07-13 15:28:04,15.08837904,0.0001208,53.2178,63.9682,82.3799,277.733,-1.9477e-06,-3.19e-06,0.0,0 STARLINK-5452,1 54772U 22175Q   23194.64449597 -.00000319  00000-0 -19477-5 0  9997,2 54772  53.2178  63.9682 0001208  82.3799 277.7330 15.08837904 31521,6917.887,95.438,540.587,538.916,0.0
54772.0,STARLINK-5452,PAYLOAD,2023-07-14 16:54:14,15.08841242,9.43e-05,53.2172,59.2071,88.0264,272.0836,1.2053e-05,-9.6e-07,0.0,0 STARLINK-5452,1 54772U 22175Q   23195.70433389 -.00000096  00000-0  12053-4 0  9990,2 54772  53.2172  59.2071 0000943  88.0264 272.0836 15.08841242 31686,6917.877,95.437,540.394,539.089,0.0
